[{"OBJECT_NAME":"MCUBED-2","OBJECT_ID":"2013-072L","EPOCH":"2026-03-09T22:49:27.284736","MEAN_MOTION":15.59782731,"ECCENTRICITY":0.0052286,"INCLINATION":120.4818,"RA_OF_ASC_NODE":108.7467,"ARG_OF_PERICENTER":309.4194,"MEAN_ANOMALY":50.2277,"EPHEMERIS_TYPE":0,"CLASSIFICATION_TYPE":"U","NORAD_CAT_ID":39472,"ELEMENT_SET_NO":999,"REV_AT_EPOCH":10128,"BSTAR":0.0011197913,"MEAN_MOTION_DOT":0.00097876,"MEAN_MOTION_DDOT":0},{"OBJECT_NAME":"STARLINK-11688 [DTC]","OBJECT_ID":"2025-089F","EPOCH":"2026-03-09T01:02:21.222816","MEAN_MOTION":15.70888654,"ECCENTRICITY":0.00017941,"INCLINATION":42.9994,"RA_OF_ASC_NODE":296.1574,"ARG_OF_PERICENTER":263.1827,"MEAN_ANOMALY":96.8837,"EPHEMERIS_TYPE":0,"CLASSIFICATION_TYPE":"U","NORAD_CAT_ID":63756,"ELEMENT_SET_NO":999,"REV_AT_EPOCH":4992,"BSTAR":0.0014531122,"MEAN_MOTION_DOT":0.00190737,"MEAN_MOTION_DDOT":0}]
